[{"OBJECT_NAME":"STARLINK-30548","OBJECT_ID":"2023-156U","EPOCH":"2026-03-09T12:00:31.769280","MEAN_MOTION":15.30179201,"ECCENTRICITY":8.785e-5,"INCLINATION":53.1571,"RA_OF_ASC_NODE":169.0796,"ARG_OF_PERICENTER":82.059,"MEAN_ANOMALY":278.0511,"EPHEMERIS_TYPE":0,"CLASSIFICATION_TYPE":"U","NORAD_CAT_ID":58046,"ELEMENT_SET_NO":999,"REV_AT_EPOCH":13495,"BSTAR":0.00041289113,"MEAN_MOTION_DOT":0.00011881,"MEAN_MOTION_DDOT":0},{"OBJECT_NAME":"OBJECT P","OBJECT_ID":"2018-099P","EPOCH":"2026-03-09T16:35:55.790016","MEAN_MOTION":15.30834106,"ECCENTRICITY":0.00076856,"INCLINATION":97.4366,"RA_OF_ASC_NODE":131.9195,"ARG_OF_PERICENTER":276.7627,"MEAN_ANOMALY":83.2739,"EPHEMERIS_TYPE":0,"CLASSIFICATION_TYPE":"U","NORAD_CAT_ID":43771,"ELEMENT_SET_NO":999,"REV_AT_EPOCH":39830,"BSTAR":0.00063632878,"MEAN_MOTION_DOT":0.00018926,"MEAN_MOTION_DDOT":0}]
